GLOBALSTAR M075         
1 37192U 10054E   23233.45402312 -.00000101  00000+0  12795-4 0  9996
2 37192  51.9954  48.5473 0000603  80.4243 296.6887 12.62260428592306
GLOBALSTAR M073         
1 37193U 10054F   23234.16394675 -.00000084  00000+0  10804-3 0  9996
2 37193  52.0078 319.7018 0000575 110.4800 253.6495 12.62266550593890
GLOBALSTAR M083         
1 37739U 11033A   23234.01974743 -.00000103  00000+0  22922-5 0  9992
2 37739  51.9843 269.7803 0000497 145.9214 223.5007 12.62268748563214
GLOBALSTAR M088         
1 37740U 11033B   23234.17300515 -.00000086  00000+0  98638-4 0  9997
2 37740  51.9723 175.3618 0000076  30.7530  75.2257 12.62264848558708
GLOBALSTAR M091         
1 37741U 11033C   23234.19792647 -.00000080  00000+0  13538-3 0  9990
2 37741  51.9993 137.6527 0000226  56.2570 102.4558 12.62265707559468
GLOBALSTAR M085         
1 37742U 11033D   23233.77079230 -.00000098  00000+0  31018-4 0  9993
2 37742  51.9863  90.5795 0000546  80.4224 357.2144 12.62266552560157
GLOBALSTAR M081         
1 37743U 11033E   23233.34437381 -.00000084  00000+0  11098-3 0  9992
2 37743  51.9954  94.2552 0000451  52.1549 126.2168 12.62270387560131
GLOBALSTAR M089         
1 37744U 11033F   23233.51073675 -.00000111  00000+0 -40008-4 0  9990
2 37744  51.9937  48.1006 0000878  66.7988 327.8267 12.62266250560870
